STARLINK-3525           
1 51733U 22016V   22070.50001157  .00051178  00000+0  36642-3 0  9995
2 51733  53.2178  50.9688 0001130  53.4721  21.1893 15.73227071  3518
STARLINK-3450           
1 51734U 22016W   22070.50001157 -.00019980  00000+0 -13784-3 0  9995
2 51734  53.2184  50.9635 0001314  57.6626  20.1890 15.73273526  3514
STARLINK-3517           
1 51735U 22016X   22070.50001157 -.00033200  00000+0 -23241-3 0  9996
2 51735  53.2180  50.9654 0000996  69.4449   7.1557 15.73266036  3514
STARLINK-3447           
1 51736U 22016Y   22070.50001157 -.00017302  00000+0 -11878-3 0  9995
2 51736  53.2184  50.9610 0001232  56.2457  22.9222 15.73264665  3518
STARLINK-3509           
1 51737U 22016Z   22070.50001157 -.00034475  00000+0 -24147-3 0  9999
2 51737  53.2180  50.9640 0001242  70.4540   6.7585 15.73272658  3513
STARLINK-3515           
1 51738U 22016AA  22070.50001157 -.00009764  00000+0 -65086-4 0  9991
2 51738  53.2185  50.9588 0001271  63.4724  16.9645 15.73250613  3515
STARLINK-3516           
1 51739U 22016AB  22070.50001157  .00027641  00000+0  20072-3 0  9999
2 51739  53.2181  50.9614 0001154  54.2539  24.3892 15.73199411  3519
STARLINK-3500           
1 51740U 22016AC  22070.50001157 -.00049709  00000+0 -35093-3 0  9991
2 51740  53.2184  50.9548 0001013  59.4885  22.8292 15.73261969  3510
STARLINK-3520           
1 51741U 22016AD  22070.50001157 -.00054145  00000+0 -38284-3 0  9997
2 51741  53.2181  50.9591 0000933  57.7993  21.9629 15.73262551  3519
STARLINK-3521           
1 51742U 22016AE  22070.50001157 -.00040391  00000+0 -28394-3 0  9997
2 51742  53.2185  50.9537 0001141  60.8688  22.1228 15.73266822  3515
STARLINK-3512           
1 51743U 22016AF  22070.50001157 -.00004523  00000+0 -27756-4 0  9997
2 51743  53.2181  50.9566 0001141  72.7300   8.3506 15.73256810  3518
STARLINK-3452           
1 51744U 22016AG  22070.50001157 -.00059274  00000+0 -41945-3 0  9996
2 51744  53.2186  50.9514 0001113  77.5016   6.7237 15.73280212  3519
STARLINK-3449           
1 51745U 22016AH  22070.50001157  .00068164  00000+0  48536-3 0  9996
2 51745  53.2183  50.9558 0000893  48.3894  33.2720 15.73238500  3514
STARLINK-3502           
1 51746U 22016AJ  22070.50001157 -.00006639  00000+0 -42781-4 0  9995
2 51746  53.2186  50.9489 0001269  47.1994  38.3048 15.73274784  3510
STARLINK-3446           
1 51747U 22016AK  22070.50001157 -.00018559  00000+0 -12775-3 0  9999
2 51747  53.2183  50.9519 0001176  71.3947  12.2040 15.73265377  3517
STARLINK-3501           
1 51748U 22016AL  22070.50001157 -.00064322  00000+0 -45571-3 0  9999
2 51748  53.2186  50.9464 0001455  54.0222  32.7491 15.73284951  3510
STARLINK-3451           
1 51749U 22016AM  22070.50001157 -.00029514  00000+0 -20604-3 0  9994
2 51749  53.2182  50.9493 0001351  45.8443  39.0400 15.73263331  3516
STARLINK-3505           
1 51750U 22016AN  22070.50001157 -.00042676  00000+0 -30022-3 0  9995
2 51750  53.2187  50.9441 0001209  66.1656  21.9138 15.73275364  3517
STARLINK-3506           
1 51751U 22016AP  22070.50001157 -.00024682  00000+0 -17145-3 0  9994
2 51751  53.2183  50.9469 0001371  61.1668  24.9830 15.73267973  3511
STARLINK-3511           
1 51752U 22016AQ  22070.50001157 -.00069315  00000+0 -49178-3 0  9998
2 51752  53.2189  50.9432 0001352  54.2039  34.5061 15.73282412  3510
STARLINK-3507           
1 51753U 22016AR  22070.50001157  .00017052  00000+0  12543-3 0  9994
2 51753  53.2185  50.9446 0001345  53.8026  33.6363 15.73244474  3516
STARLINK-3457           
1 51754U 22016AS  22070.50001157  .00045085  00000+0  32346-3 0  9995
2 51754  53.2187  50.9401 0001027  40.0006  49.9969 15.73233889  3513
STARLINK-3460           
1 51755U 22016AT  22070.50001157 -.00007314  00000+0 -47626-4 0  9999
2 51755  53.2185  50.9407 0001169  67.8585  21.4969 15.73256093  3511
STARLINK-3513           
1 51756U 22016AU  22070.50001157 -.00045177  00000+0 -31813-3 0  9999
2 51756  53.2189  50.9395 0001396  56.5673  34.0608 15.73277424  3518
STARLINK-3459           
1 51757U 22016AV  22070.50001157  .00060744  00000+0  43342-3 0  9995
2 51757  53.2185  50.9373 0001034  49.4091  41.8212 15.73236883  3516
STARLINK-3458           
1 51758U 22016AW  22070.50001157 -.00024857  00000+0 -17270-3 0  9994
2 51758  53.2189  50.9368 0001476  45.6578  46.2440 15.73267392  3514
STARLINK-3456           
1 51759U 22016AX  22070.50001157  .00001928  00000+0  18114-4 0  9996
2 51759  53.2184  50.9344 0001387  53.0368  39.5163 15.73251222  3517
FALCON 9 DEB            
1 51760U 22016AY  22070.48104778  .00151651  00000+0  68489-3 0  9996
2 51760  53.2310  50.2848 0005657 326.2045  33.8618 15.83051035  2986
FALCON 9 DEB            
1 51761U 22016AZ  22070.47588709  .00170521  00000+0  74373-3 0  9992
2 51761  53.2283  50.2460 0004504 296.2378  63.8183 15.83740573  2983
FALCON 9 DEB            
1 51762U 22016BA  22070.46429256  .00161271  00000+0  66872-3 0  9990
2 51762  53.2252  50.1608 0009071 302.1955  57.8190 15.84784360  2989
FALCON 9 DEB            
1 51763U 22016BB  22070.46150044  .00153849  00000+0  63512-3 0  9997
2 51763  53.2236  50.1380 0008749 283.6889  76.3162 15.84903182  2989
STARLINK-3622           
1 51768U 22017A   22070.50001157  .00095951  00000+0  68011-3 0  9996
2 51768  53.2185  75.0380 0001668  40.7863 332.4515 15.73205900  2686
STARLINK-3621           
1 51769U 22017B   22070.50001157  .00033852  00000+0  24426-3 0  9991
2 51769  53.2196  75.0347 0001605  46.8260 327.7010 15.73236250  2679
STARLINK-3612           
1 51770U 22017C   22070.50001157  .00101414  00000+0  71814-3 0  9996
2 51770  53.2184  75.0370 0001272  42.6634 331.2275 15.73205463  2678
STARLINK-3614           
1 51771U 22017D   22070.50001157  .00024602  00000+0  17888-3 0  9991
2 51771  53.2197  75.0338 0001693  44.6555 330.5015 15.73240676  2677
STARLINK-3623           
1 51772U 22017E   22070.50001157  .00095477  00000+0  67694-3 0  9990
2 51772  53.2183  75.0303 0001488  41.7177 335.3693 15.73201713  2679
STARLINK-3624           
1 51773U 22017F   22070.50001157 -.00005040  00000+0 -31429-4 0  9998
2 51773  53.2198  75.0324 0001402  43.2871 332.5227 15.73257931  2678
STARLINK-3629           
1 51774U 22017G   22070.50001157  .00087779  00000+0  62273-3 0  9996
2 51774  53.2183  75.0279 0001422  48.7696 329.5610 15.73222573  2686
STARLINK-3620           
1 51775U 22017H   22070.50001157  .00024810  00000+0  18022-3 0  9997
2 51775  53.2198  75.0311 0001381  51.6586 324.7687 15.73258442  2680
STARLINK-3608           
1 51776U 22017J   22070.50001157  .00073528  00000+0  52303-3 0  9998
2 51776  53.2192  75.0267 0001852  39.0709 339.8869 15.73230942  2689
STARLINK-3625           
1 51777U 22017K   22070.50001157  .00088859  00000+0  62990-3 0  9995
2 51777  53.2187  75.0287 0001499  46.9646 330.7285 15.73235639  2680
STARLINK-3615           
1 51778U 22017L   22070.50001157  .00100614  00000+0  71283-3 0  9995
2 51778  53.2221  74.6750 0001337  40.7621 150.5428 15.73197299  2682
STARLINK-3611           
1 51779U 22017M   22070.50001157  .00107406  00000+0  76012-3 0  9997
2 51779  53.2184  75.0249 0001546  44.8007 334.8243 15.73194341  2681
STARLINK-3617           
1 51780U 22017N   22070.50001157  .00100999  00000+0  71513-3 0  9990
2 51780  53.2184  75.0203 0001423  51.9402 330.2343 15.73209556  2681
STARLINK-3580           
1 51781U 22017P   22070.50001157  .00011411  00000+0  85378-4 0  9996
2 51781  53.2180  75.0238 0001389  46.5588 333.6811 15.73264458  2681
STARLINK-3616           
1 51782U 22017Q   22070.50001157  .00009858  00000+0  74349-4 0  9995
2 51782  53.2185  75.0165 0001328  44.0287 340.0418 15.73270602  2670
STARLINK-3628           
1 51783U 22017R   22070.50001157  .00108559  00000+0  76826-3 0  9995
2 51783  53.2185  75.0214 0001539  54.7455 326.7952 15.73190496  2682
STARLINK-3632           
1 51784U 22017S   22070.50001157  .00091589  00000+0  64928-3 0  9990
2 51784  53.2184  75.0153 0001460  36.9839 347.7263 15.73222379  2678
STARLINK-3646           
1 51785U 22017T   22070.50001157  .00109200  00000+0  77284-3 0  9990
2 51785  53.2185  75.0187 0001563  43.3430 339.4765 15.73186563  2679
STARLINK-3638           
1 51786U 22017U   22070.50001157  .00092495  00000+0  65557-3 0  9998
2 51786  53.2187  75.0130 0001254  36.9757 348.9882 15.73223258  2675
STARLINK-3619           
1 51787U 22017V   22070.50001157  .00103396  00000+0  73187-3 0  9990
2 51787  53.2181  75.0172 0001794  44.2851 339.1870 15.73206457  2673
STARLINK-3641           
1 51788U 22017W   22070.50001157  .00105717  00000+0  74799-3 0  9990
2 51788  53.2187  75.0090 0001303  41.1708 346.7054 15.73207000  2686
STARLINK-3639           
1 51789U 22017X   22070.50001157  .00002380  00000+0  21323-4 0  9999
2 51789  53.2183  75.0136 0001368  46.4980 338.8855 15.73258510  2677
STARLINK-3631           
1 51790U 22017Y   22070.50001157  .00003435  00000+0  28803-4 0  9993
2 51790  53.2186  75.0073 0001328  50.4192 338.1307 15.73265079  2671
STARLINK-3602           
1 51791U 22017Z   22070.50001157  .00107286  00000+0  76018-3 0  9993
2 51791  53.2182  75.0109 0001438  42.6203 344.0734 15.73166894  2671
STARLINK-3626           
1 51792U 22017AA  22070.50001157  .00107567  00000+0  76154-3 0  9997
2 51792  53.2191  75.0051 0001638  48.9994 340.8569 15.73185024  2683
STARLINK-3633           
1 51793U 22017AB  22070.50001157 -.00004694  00000+0 -28965-4 0  9995
2 51793  53.2182  75.0096 0001465  47.8697 339.4470 15.73259568  2678
STARLINK-3573           
1 51794U 22017AC  22070.50001157  .00034127  00000+0  24611-3 0  9991
2 51794  53.2187  75.0024 0001540  62.9468 328.1852 15.73245507  2681
STARLINK-3586           
1 51795U 22017AD  22070.50001157  .00106526  00000+0  75471-3 0  9995
2 51795  53.2182  75.0033 0001409  53.1985 337.2826 15.73172686  2675
